C/2015 TQ209 (LINEAR),e,11.3085,223.4125,282.1255,703.6143,0.0000528,0.99798865,0.0000,08/26.4127/2016,2000,g 10.5,4.0
# From MPC115881
C/2015 V1 (PANSTARRS),e,139.2235,197.1879,179.6195,4868,0.0000029,0.99912336,0.0000,12/17.3840/2017,2000,g  6.5,4.0
# From MPC112390
C/2015 V2 (Johnson),h,06/12.2063/2017,49.8729,69.8567,164.9744,1.001834,1.640791,2000,5.0,4.0
# From MPC102953
C/2015 V3 (PANSTARRS),e,86.2401,2.2636,0.7104,627.8533,0.0000626,0.99326038,0.0000,11/24.0086/2015,2000,g  9.0,4.0
# From MPC104791
C/2015 V4 (PANSTARRS),e,60.7625,179.9124,307.0506,18.50836,0.0123780,0.70479867,15.4246,01/27.0/2020,2000,g  8.5,4.0
# From MPC115881
C/2015 VL62 (Lemmon-Yeung-PANSTARRS),h,08/28.0946/2017,165.8152,95.0900,128.7250,1.001168,2.713786,2000,8.0,4.0
# From MPC102098
C/2015 WZ (PANSTARRS),e,134.5641,40.1389,66.6589,146.4815,0.0005559,0.99059662,0.0000,04/14.0797/2016,2000,g 15.0,4.0
# From MPC109142
C/2015 W1 (Gibbs),h,05/15.4174/2016,87.3741,114.3159,48.1983,1.000110,2.241330,2000,13.0,4.0
# From MPC101098
P/2015 W2 (Catalina),e,11.6069,294.2522,117.5696,7.301660,0.0499542,0.63333663,78.9232,01/27.0/2020,2000,g 13.0,4.0
# From MPC101098
P/2015 X1 (PANSTARRS),e,12.1519,161.7749,218.9914,3.630540,0.1424778,0.41892393,223.9879,01/27.0/2020,2000,g 16.0,4.0
# From MPEC 2020-AA5
C/2015 XY1 (Lemmon),h,04/28.7015/2018,148.8556,281.6253,196.2842,1.003938,7.926142,2000,5.5,4.0
# From MPC100281
C/2015 X2 (Catalina),e,72.0984,101.1008,42.3683,15.83280,0.0156447,0.87833775,23.4658,01/27.0/2020,2000,g 16.0,4.0
# From MPC 97498
P/2015 X3 (PANSTARRS),e,24.3824,77.3332,306.6693,5.012142,0.0878353,0.43815996,143.5110,01/27.0/2020,2000,g 15.0,4.0
# From MPC109142
C/2015 X4 (Elenin),e,29.5010,262.6208,176.2719,17.96903,0.0129395,0.81118373,20.0117,01/27.0/2020,2000,g 10.0,4.0
# From MPC119995
C/2015 X5 (PANSTARRS),h,12/30.2313/2017,124.3077,122.3416,27.7069,1.002923,6.799768,2000,7.5,4.0
# From MPC115881
P/2015 X6 (PANSTARRS),e,4.5648,106.9472,329.9008,2.752415,0.2158406,0.17231287,302.9658,01/27.0/2020,2000,g 16.0,4.0
# From MPC109143
C/2015 X7 (ATLAS),h,07/29.5815/2016,57.5627,139.9088,348.4609,1.000292,3.685142,2000,9.0,4.0
# From MPC107048
C/2015 X8 (NEOWISE),e,155.2144,191.1494,20.4283,19.76464,0.0112168,0.93997428,17.4521,01/27.0/2020,2000,g 16.0,4.0
# From MPC109143
C/2015 Y1 (LINEAR),e,71.1756,135.8114,24.6950,256.1909,0.0002404,0.99017765,0.0000,05/14.3432/2016,2000,g 12.0,4.0
# From MPC105543
C/2015 YG1 (NEOWISE),e,57.2743,350.5231,102.5256,17.01243,0.0140461,0.87853941,22.2239,01/27.0/2020,2000,g 13.0,4.0
# From MPC119995
C/2016 A1 (PANSTARRS),h,11/23.0523/2017,121.2045,128.2000,10.2921,1.002005,5.325861,2000,6.0,4.0
# From MPC100282
P/2016 A2 (Christensen),e,26.4066,291.6150,141.6498,4.748505,0.0952508,0.27144863,159.9801,01/27.0/2020,2000,g 11.5,4.0
# From MPC115881
P/2016 A3 (PANSTARRS),e,8.5134,187.3427,340.7343,7.887245,0.0444955,0.38830920,44.6198,01/27.0/2020,2000,g 10.0,4.0
# From MPC109143
C/2016 A5 (PANSTARRS),e,40.2398,136.1667,321.5452,671.1394,0.0000567,0.99561227,0.0000,06/26.8399/2015,2000,g 13.5,4.0
# From MPC109143
C/2016 A6 (PANSTARRS),e,120.9356,300.3659,141.0775,207.3156,0.0003302,0.98839002,0.0000,11/06.3001/2015,2000,g 15.0,4.0
# From MPC102098
P/2016 A7 (PANSTARRS),e,16.6299,221.4748,352.6262,5.030156,0.0873639,0.56575635,125.0735,01/27.0/2020,2000,g 16.0,4.0
# From MPC106345
C/2016 A8 (LINEAR),e,148.2431,111.3375,130.3575,34.28087,0.0049105,0.94501891,6.1154,01/27.0/2020,2000,g 12.0,4.0
# From MPC107048
C/2016 B1 (NEOWISE),e,50.4688,231.9721,8.6625,439.7179,0.0001069,0.99269488,0.0000,12/04.8288/2016,2000,g  9.5,4.0
# From MPC109143
P/2016 BA14 (PANSTARRS),e,18.8980,180.5375,351.9106,3.024014,0.1874253,0.66529552,264.9162,01/27.0/2020,2000,g 21.0,4.0
# From MPC110494
C/2016 C1 (PANSTARRS),h,02/19.3317/2016,56.2119,181.7978,328.7824,1.002691,8.467065,2000,5.5,4.0
# From MPC101098
C/2016 C2 (NEOWISE),e,38.0964,24.4214,214.5285,65.87237,0.0018435,0.97623751,0.0000,04/19.6196/2016,2000,g 16.0,4.0
# From MPC110494
C/2016 E1 (PANSTARRS),h,06/03.9283/2017,131.8921,233.0542,47.4525,1.005349,8.179633,2000,6.5,4.0
# From MPC 99821
C/2016 E2 (Kowalski),e,135.9149,186.8177,321.9115,139.4472,0.0005985,0.99228157,0.0000,02/06.7157/2016,2000,g 20.0,4.0
# From MPC102098
P/2016 G1 (PANSTARRS),e,10.9691,204.0594,111.2992,2.582313,0.2375148,0.21088818,260.1255,01/27.0/2020,2000,g 14.0,4.0
# From MPEC 2017-D91
P/2016 J1-A (PANSTARRS),e,14.3248,199.8338,46.8481,3.174338,0.1742707,0.22821840,228.4018,01/27.0/2020,2000,g 16.5,4.0
# From MPEC 2017-A77
P/2016 J1-B (PANSTARRS),e,14.3276,199.8387,46.7392,3.173968,0.1743011,0.22806961,228.5165,01/27.0/2020,2000,g 17.0,4.0
# From MPC101099
C/2016 J2 (Denneau),e,130.3402,186.3323,318.6175,624.2565,0.0000632,0.99756325,0.0000,04/12.0469/2016,2000,g 17.0,4.0
# From MPC102099
C/2016 KA (Catalina),e,104.6765,317.5122,63.1841,4951,0.0000028,0.99890821,0.0000,02/02.0676/2016,2000,g  8.5,4.0
# From MPC104792
C/2016 K1 (LINEAR),e,90.9077,325.6360,18.2679,14975,0.0000005,0.99984687,0.0000,07/13.2716/2016,2000,g 13.0,4.0
# From MPC119995
C/2016 M1 (PANSTARRS),e,91.0003,92.2031,209.8614,3233,0.0000054,0.99931597,0.0000,08/10.2538/2018,2000,g  5.0,4.0
# From MPC115881
C/2016 N4 (MASTER),e,72.5844,354.0060,55.9414,2404,0.0000084,0.99866930,0.0000,09/16.4659/2017,2000,g  8.5,4.0
# From MPC119995
C/2016 N6 (PANSTARRS),e,105.8404,298.9858,162.7774,1888,0.0000120,0.99858695,0.0000,07/18.1387/2018,2000,g  7.0,4.0
# From MPC102099
P/2016 P1 (PANSTARRS),e,24.4533,319.5655,270.0351,3.195095,0.1725752,0.28940135,273.7071,01/27.0/2020,2000,g 15.0,4.0
# From MPC102099
C/2016 P4 (PANSTARRS),e,29.8819,320.7435,356.1343,388.8893,0.0001285,0.98484965,0.0000,10/17.7503/2016,2000,g 10.5,4.0
# From MPC118093
C/2016 Q2 (PANSTARRS),e,109.3906,322.3011,84.4828,12205,0.0000007,0.99941967,0.0000,05/11.3280/2021,2000,g  6.0,4.0
# From MPC102955
C/2016 Q4 (Kowalski),e,7.2576,271.2846,99.3903,16.88487,0.0142055,0.58036788,10.3762,01/27.0/2020,2000,g  7.0,4.0
# From MPC119995
C/2016 R2 (PANSTARRS),e,58.2249,80.5693,33.1908,586.8794,0.0000693,0.99556459,0.0000,05/09.4322/2018,2000,g  7.0,4.0
# From MPC102099
C/2016 R3 (Borisov),e,53.0441,78.6464,118.1866,200.2677,0.0003478,0.99774794,0.0000,10/10.5919/2016,2000,g 18.0,4.0
# From MPC109144
P/2016 R4 (Gibbs),e,10.8673,168.2910,173.9932,5.331818,0.0800555,0.47584566,102.8722,01/27.0/2020,2000,g 12.5,4.0
# From MPC105543
P/2016 S1 (PANSTARRS),e,94.6482,227.5171,273.2673,8.280467,0.0413639,0.71026595,43.2904,01/27.0/2020,2000,g 12.0,4.0
# From MPC105238
C/2016 T1 (Matheny),e,129.8458,56.2697,137.3800,123.2143,0.0007206,0.98131284,0.0000,02/01.3010/2017,2000,g 14.5,4.0
# From MPC107685
C/2016 T2 (Matheny),e,81.3572,339.1408,92.2565,99.18655,0.0009978,0.98077095,0.0000,12/28.9856/2016,2000,g 14.5,4.0
# From MPC110082
C/2016 T3 (PANSTARRS),e,22.6773,271.7419,194.6901,134.8995,0.0006291,0.98035091,0.0000,09/06.6804/2017,2000,g 10.5,4.0
# From MPC103847
C/2016 U1 (NEOWISE),h,01/14.0296/2017,46.4068,61.4520,162.8287,1.000393,0.321401,2000,17.0,4.0
# From MPC106345
C/2016 VZ18 (PANSTARRS),e,24.0057,98.9246,36.4045,173.0138,0.0004331,0.99472411,0.0000,03/06.5119/2017,2000,g 19.5,4.0
# From MPC106345
P/2016 WM48 (Lemmon),e,117.4234,59.9018,36.0956,8.172556,0.0421859,0.78419951,44.9930,01/27.0/2020,2000,g 15.0,4.0
# From MPC119995
C/2016 X1 (Lemmon),e,26.4549,256.4231,224.5337,1468,0.0000175,0.99484796,0.0000,04/29.3163/2019,2000,g  6.0,4.0
# From MPC108594
C/2017 A1 (PANSTARRS),e,49.7941,121.0407,2.0705,77.54679,0.0014433,0.97044012,0.0000,05/16.5944/2017,2000,g 13.0,4.0
# From MPC108594
C/2017 A3 (Elenin),e,98.5371,97.9076,304.0606,43.49456,0.0034360,0.91146560,3.7496,01/27.0/2020,2000,g  9.5,4.0
# From MPC114598
C/2017 AB5 (PANSTARRS),e,32.4335,42.6654,78.3639,3048,0.0000059,0.99697689,0.0000,02/16.6091/2018,2000,g  5.5,4.0
# From MPC119995
C/2017 B3 (LINEAR),h,02/02.6176/2019,54.1769,2.1789,284.7732,1.001973,3.921621,2000,6.0,4.0
# From MPC103847
P/2017 B4 (PANSTARRS),e,20.0584,121.4578,11.0197,4.410520,0.1064068,0.36495152,359.9130,01/05.0/2017,2000,g 14.5,4.0
# From MPC104793
C/2017 C1 (NEOWISE),e,65.7414,357.4832,110.1359,20.62754,0.0105204,0.92722676,11.6092,01/27.0/2020,2000,g 18.0,4.0
# From MPC107685
C/2017 C2 (PANSTARRS),e,118.5895,249.8137,138.6695,97.55443,0.0010229,0.97513328,0.0000,01/21.6147/2017,2000,g 14.0,4.0
# From MPC104793
P/2017 D1 (Fuls),e,20.7616,82.1766,8.1118,4.829430,0.0928667,0.43694830,121.6355,01/27.0/2020,2000,g 14.0,4.0
# From MPC112391
C/2017 D2 (Barros),e,31.2565,330.9883,334.4395,2762,0.0000068,0.99909936,0.0000,07/14.7845/2017,2000,g 11.0,4.0
# From MPC114598
C/2017 D3 (ATLAS),h,04/27.1879/2017,125.5750,186.6442,340.8460,1.001915,4.973890,2000,8.0,4.0
# From MPC110495
P/2017 D4 (PANSTARRS),e,10.5301,264.9374,212.3293,7.570661,0.0473155,0.62886399,58.5553,01/27.0/2020,2000,g 13.0,4.0
# From MPC104794
C/2017 D5 (PANSTARRS),e,131.0594,92.7359,287.7991,114.9701,0.0007995,0.98117893,0.0000,01/09.2714/2017,2000,g 16.0,4.0
# From MPC106346
C/2017 E1 (Borisov),h,04/10.4446/2017,14.5642,142.6201,152.6020,1.002956,0.900577,2000,14.0,4.0
# From MPC109144
C/2017 E2 (Tsuchinshan),e,79.0337,11.5726,89.3914,21.54820,0.0098534,0.89087274,13.3554,01/27.0/2020,2000,g 11.5,4.0
# From MPC115882
C/2017 E3 (PANSTARRS),h,06/08.1992/2017,70.6241,220.7277,334.5124,1.007163,5.936504,2000,6.5,4.0
# From MPC105239
C/2017 E4 (Lovejoy),h,04/23.5221/2017,88.1319,223.1240,87.0786,1.001503,0.491765,2000,17.0,4.0
# From MPC105239
C/2017 E5 (Lemmon),e,122.6602,206.2788,306.8749,385.6244,0.0001302,0.99536425,0.0000,06/10.5587/2016,2000,g 13.0,4.0
# From MPC111769
C/2017 F1 (Lemmon),h,11/30.6379/2017,146.4718,158.7776,64.7919,1.004313,4.497777,2000,10.5,4.0
# From MPC114598
C/2017 F2 (PANSTARRS),h,11/27.8156/2017,42.5094,38.6696,135.0465,1.004677,6.931362,2000,7.5,4.0
# From MPC104794
P/2017 G1 (PANSTARRS),e,4.7747,249.6284,224.5826,7.293882,0.0500341,0.65339948,68.4549,01/27.0/2020,2000,g 13.5,4.0
# From MPC108595
